NORAD_CAT_ID,OBJECT_NAME,OBJECT_TYPE,EPOCH,MEAN_MOTION,ECCENTRICITY,INCLINATION,RA_OF_ASC_NODE,ARG_OF_PERICENTER,MEAN_ANOMALY,BSTAR,MEAN_MOTION_DOT,MEAN_MOTION_DDOT,TLE_LINE0,TLE_LINE1,TLE_LINE2,SEMIMAJOR_AXIS,PERIOD,APOGEE,PERIGEE,DECAYED
52682.0,STARLINK-4017,PAYLOAD,2023-05-18 02:23:46,15.08839114,0.0001124,53.2168,72.6567,93.6227,266.4894,4.8185e-05,4.79e-06,0.0,0 STARLINK-4017,1 52682U 22053AC  23138.09983843  .00000479  00000-0  48185-4 0  9996,2 52682  53.2168  72.6567 0001124  93.6227 266.4894 15.08839114 55762,6917.883,95.438,540.526,538.971,0.0
52682.0,STARLINK-4017,PAYLOAD,2023-05-18 05:34:32,15.08837121,0.0001187,53.217,72.0625,92.3439,267.7689,6.0052e-05,6.68e-06,0.0,0 STARLINK-4017,1 52682U 22053AC  23138.23231963  .00000668  00000-0  60052-4 0  9998,2 52682  53.2170  72.0625 0001187  92.3439 267.7689 15.08837121 56194,6917.889,95.438,540.575,538.933,0.0
52682.0,STARLINK-4017,PAYLOAD,2023-05-19 02:14:32,15.08848454,0.0001035,53.2169,68.1976,82.0271,278.0839,9.6765e-05,1.253e-05,0.0,0 STARLINK-4017,1 52682U 22053AC  23139.09343260  .00001253  00000-0  96765-4 0  9998,2 52682  53.2169  68.1976 0001035  82.0271 278.0839 15.08848454 55911,6917.855,95.437,540.436,539.004,0.0
52682.0,STARLINK-4017,PAYLOAD,2023-05-19 18:08:24,15.08836545,0.000118,53.2182,65.2299,90.3447,269.7681,0.00011521,1.546e-05,0.0,0 STARLINK-4017,1 52682U 22053AC  23139.75584042  .00001546  00000-0  11521-3 0  9997,2 52682  53.2182  65.2299 0001180  90.3447 269.7681 15.08836545 56012,6917.891,95.438,540.572,538.94,0.0
52682.0,STARLINK-4017,PAYLOAD,2023-05-20 17:59:10,15.08848428,0.0001136,53.2172,60.7647,85.1928,274.9193,0.00015803,2.229e-05,0.0,0 STARLINK-4017,1 52682U 22053AC  23140.74943260  .00002229  00000-0  15803-3 0  9995,2 52682  53.2172  60.7647 0001136  85.1928 274.9193 15.08848428 56160,6917.855,95.437,540.505,538.934,0.0
52682.0,STARLINK-4017,PAYLOAD,2023-05-21 01:56:06,15.08858546,0.0001151,53.2169,59.2781,87.0497,273.0626,0.00019595,2.834e-05,0.0,0 STARLINK-4017,1 52682U 22053AC  23141.08062595  .00002834  00000-0  19595-3 0  9990,2 52682  53.2169  59.2781 0001151  87.0497 273.0626 15.08858546 56216,6917.824,95.436,540.485,538.892,0.0
52682.0,STARLINK-4017,PAYLOAD,2023-05-22 03:22:17,15.08824477,0.0001101,53.2169,54.5207,95.0269,265.0849,-0.0002041,-3.533e-05,0.0,0 STARLINK-4017,1 52682U 22053AC  23142.14048526 -.00003533  00000-0 -20410-3 0  9993,2 52682  53.2169  54.5207 0001101  95.0269 265.0849 15.08824477 56379,6917.928,95.439,540.555,539.031,0.0
52682.0,STARLINK-4017,PAYLOAD,2023-05-22 11:19:13,15.08829989,0.000109,53.2171,53.0345,79.2464,280.8651,-1.6914e-05,-5.57e-06,0.0,0 STARLINK-4017,1 52682U 22053AC  23142.47168651 -.00000557  00000-0 -16914-4 0  9999,2 52682  53.2171  53.0345 0001090  79.2464 280.8651 15.08829989 56837,6917.911,95.438,540.53,539.022,0.0
52682.0,STARLINK-4017,PAYLOAD,2023-05-23 01:37:41,15.0884852,0.0001191,53.2178,50.357,74.327,285.7854,0.00042046,6.412e-05,0.0,0 STARLINK-4017,1 52682U 22053AC  23143.06784362  .00006412  00000-0  42046-3 0  9996,2 52682  53.2178  50.3570 0001191  74.3270 285.7854 15.08848520 56513,6917.854,95.437,540.543,538.895,0.0
52682.0,STARLINK-4017,PAYLOAD,2023-05-23 23:53:05,15.0885155,0.0001474,53.2176,46.2002,61.5632,298.5508,0.00045207,6.916e-05,0.0,0 STARLINK-4017,1 52682U 22053AC  23143.99520605  .00006916  00000-0  45207-3 0  9997,2 52682  53.2176  46.2002 0001474  61.5632 298.5508 15.08851550 56659,6917.845,95.437,540.73,538.69,0.0
52682.0,STARLINK-4017,PAYLOAD,2023-05-24 03:03:51,15.08857694,0.0001248,53.2174,45.5997,84.1821,275.9313,0.00053997,8.32e-05,0.0,0 STARLINK-4017,1 52682U 22053AC  23144.12768201  .00008320  00000-0  53997-3 0  9995,2 52682  53.2174  45.5997 0001248  84.1821 275.9313 15.08857694 57088,6917.826,95.436,540.555,538.828,0.0
52682.0,STARLINK-4017,PAYLOAD,2023-05-25 17:13:07,15.08845075,0.0001259,53.2173,38.4621,77.695,282.4183,0.00023147,3.398e-05,0.0,0 STARLINK-4017,1 52682U 22053AC  23145.71744590  .00003398  00000-0  23147-3 0  9990,2 52682  53.2173  38.4621 0001259  77.6950 282.4183 15.08845075 56913,6917.865,95.437,540.601,538.859,0.0
52682.0,STARLINK-4017,PAYLOAD,2023-05-25 21:59:16,15.08849868,0.0001293,53.2171,37.57,77.1503,282.9634,0.00025014,3.696e-05,0.0,0 STARLINK-4017,1 52682U 22053AC  23145.91616362  .00003696  00000-0  25014-3 0  9993,2 52682  53.2171  37.5700 0001293  77.1503 282.9634 15.08849868 57355,6917.85,95.437,540.61,538.821,0.0
52682.0,STARLINK-4017,PAYLOAD,2023-05-26 02:45:25,15.08853125,0.0001287,53.2174,36.6778,77.2656,282.848,0.0003419,5.16e-05,0.0,0 STARLINK-4017,1 52682U 22053AC  23146.11488199  .00005160  00000-0  34190-3 0  9994,2 52682  53.2174  36.6778 0001287  77.2656 282.8480 15.08853125 57388,6917.84,95.437,540.596,538.815,0.0
52682.0,STARLINK-4017,PAYLOAD,2023-05-26 17:03:54,15.08841028,0.0001231,53.2172,34.0015,88.3156,271.7977,9.5097e-05,1.226e-05,0.0,0 STARLINK-4017,1 52682U 22053AC  23146.71104656  .00001226  00000-0  95097-4 0  9996,2 52682  53.2172  34.0015 0001231  88.3156 271.7977 15.08841028 57061,6917.877,95.437,540.594,538.891,0.0
52682.0,STARLINK-4017,PAYLOAD,2023-05-26 21:50:03,15.08839932,0.0001268,53.2174,33.1094,92.2514,267.8623,6.9526e-05,8.19e-06,0.0,0 STARLINK-4017,1 52682U 22053AC  23146.90976692  .00000819  00000-0  69526-4 0  9999,2 52682  53.2174  33.1094 0001268  92.2514 267.8623 15.08839932 57506,6917.881,95.438,540.623,538.868,0.0
52682.0,STARLINK-4017,PAYLOAD,2023-05-27 20:05:28,15.08835312,0.0001218,53.2171,28.9487,87.9176,272.1956,2.2933e-05,7.7e-07,0.0,0 STARLINK-4017,1 52682U 22053AC  23147.83713034  .00000077  00000-0  22933-4 0  9998,2 52682  53.2171  28.9487 0001218  87.9176 272.1956 15.08835312 57237,6917.895,95.438,540.602,538.917,0.0
52682.0,STARLINK-4017,PAYLOAD,2023-05-27 21:40:51,15.08837303,0.0001222,53.2171,28.6514,88.0055,272.1077,3.5954e-05,2.84e-06,0.0,0 STARLINK-4017,1 52682U 22053AC  23147.90337005  .00000284  00000-0  35954-4 0  9993,2 52682  53.2171  28.6514 0001222  88.0055 272.1077 15.08837303 57650,6917.889,95.438,540.599,538.908,0.0
52682.0,STARLINK-4017,PAYLOAD,2023-05-28 00:51:37,15.08839672,0.0001227,53.2171,28.0566,86.5336,273.5796,8.9927e-05,1.144e-05,0.0,0 STARLINK-4017,1 52682U 22053AC  23148.03584952  .00001144  00000-0  89927-4 0  9998,2 52682  53.2171  28.0566 0001227  86.5336 273.5796 15.08839672 57677,6917.881,95.438,540.595,538.898,0.0
52682.0,STARLINK-4017,PAYLOAD,2023-05-28 21:31:38,15.08845451,0.0001211,53.217,24.191,89.5665,270.5465,0.00024099,3.55e-05,0.0,0 STARLINK-4017,1 52682U 22053AC  23148.89696885  .00003550  00000-0  24099-3 0  9992,2 52682  53.2170  24.1910 0001211  89.5665 270.5465 15.08845451 57804,6917.864,95.437,540.566,538.891,0.0
52682.0,STARLINK-4017,PAYLOAD,2023-05-29 02:17:47,15.08853506,0.0001213,53.2169,23.2988,89.5984,270.5147,0.00037572,5.699e-05,0.0,0 STARLINK-4017,1 52682U 22053AC  23149.09568532  .00005699  00000-0  37572-3 0  9998,2 52682  53.2169  23.2988 0001213  89.5984 270.5147 15.08853506 57428,6917.839,95.437,540.543,538.865,0.0
52682.0,STARLINK-4017,PAYLOAD,2023-05-29 21:22:25,15.08840673,0.0001377,53.2177,19.7227,106.7031,253.4112,4.3668e-05,4.07e-06,0.0,0 STARLINK-4017,1 52682U 22053AC  23149.89057061  .00000407  00000-0  43668-4 0  9992,2 52682  53.2177  19.7227 0001377 106.7031 253.4112 15.08840673 57950,6917.878,95.438,540.696,538.791,0.0
52682.0,STARLINK-4017,PAYLOAD,2023-05-29 22:57:48,15.08840704,0.0001422,53.2178,19.4254,103.9288,256.1863,4.0401e-05,3.55e-06,0.0,0 STARLINK-4017,1 52682U 22053AC  23149.95681052  .00000355  00000-0  40401-4 0  9996,2 52682  53.2178  19.4254 0001422 103.9288 256.1863 15.08840704 57556,6917.878,95.438,540.727,538.76,0.0
52682.0,STARLINK-4017,PAYLOAD,2023-05-30 14:51:40,15.08834711,0.0001323,53.217,16.4537,122.9288,237.1832,2.9143e-06,-2.42e-06,0.0,0 STARLINK-4017,1 52682U 22053AC  23150.61921386 -.00000242  00000-0  29143-5 0  9995,2 52682  53.2170  16.4537 0001323 122.9288 237.1832 15.08834711 58063,6917.897,95.438,540.677,538.846,0.0
52682.0,STARLINK-4017,PAYLOAD,2023-05-30 21:13:12,15.08844123,0.0001175,53.2172,15.27,99.3235,260.789,5.5482e-05,5.95e-06,0.0,0 STARLINK-4017,1 52682U 22053AC  23150.88417159  .00000595  00000-0  55482-4 0  9996,2 52682  53.2172  15.2700 0001175  99.3235 260.7890 15.08844123 58107,6917.868,95.437,540.546,538.92,0.0
52682.0,STARLINK-4017,PAYLOAD,2023-05-31 21:03:59,15.08848973,0.0001153,53.2166,10.8099,90.9111,269.2013,0.00025517,3.776e-05,0.0,0 STARLINK-4017,1 52682U 22053AC  23151.87776984  .00003776  00000-0  25517-3 0  9999,2 52682  53.2166  10.8099 0001153  90.9111 269.2013 15.08848973 58252,6917.853,95.437,540.516,538.92,0.0
52682.0,STARLINK-4017,PAYLOAD,2023-06-01 00:14:45,15.08853673,0.0001158,53.2164,10.2147,90.9746,269.1379,0.00031611,4.748e-05,0.0,0 STARLINK-4017,1 52682U 22053AC  23152.01024712  .00004748  00000-0  31611-3 0  9993,2 52682  53.2164  10.2147 0001158  90.9746 269.1379 15.08853673 57860,6917.839,95.437,540.505,538.903,0.0
52682.0,STARLINK-4017,PAYLOAD,2023-06-01 17:44:00,15.08838669,0.00015,53.2171,6.9427,69.725,290.3903,4.6106e-05,4.46e-06,0.0,0 STARLINK-4017,1 52682U 22053AC  23152.73889599  .00000446  00000-0  46106-4 0  9991,2 52682  53.2171   6.9427 0001500  69.7250 290.3903 15.08838669 58381,6917.884,95.438,540.787,538.712,0.0
52682.0,STARLINK-4017,PAYLOAD,2023-06-02 00:05:33,15.08841078,0.0001585,53.2158,5.7535,77.8678,282.2491,0.00010341,1.358e-05,0.0,0 STARLINK-4017,1 52682U 22053AC  23153.00385563  .00001358  00000-0  10341-3 0  9998,2 52682  53.2158   5.7535 0001585  77.8678 282.2491 15.08841078 58010,6917.877,95.437,540.839,538.646,0.0
52682.0,STARLINK-4017,PAYLOAD,2023-06-02 14:24:01,15.08840909,0.0001359,53.2183,3.0725,100.8257,259.2888,3.4505e-05,2.61e-06,0.0,0 STARLINK-4017,1 52682U 22053AC  23153.60001446  .00000261  00000-0  34505-4 0  9990,2 52682  53.2183   3.0725 0001359 100.8257 259.2888 15.08840909 58510,6917.878,95.437,540.683,538.802,0.0
